STARLINK-31420          
1 59223U 24046Y   26068.47667750  .00000258  00000+0  20839-4 0  9991
2 59223  53.1591 156.5581 0001393  29.2244 330.8835 15.30182009113001
TEVEL2-3                
1 63218U 25052J   26068.64540225  .00020365  00000+0  69446-3 0  9991
2 63218  97.3994 324.7775 0004761 105.7353 254.4413 15.30377031 54855
